<?xml version="1.0" encoding="UTF-8"?>
<ndm xmlns:xsi="http://www.w3.org/2001/XMLSchema-instance" xsi:noNamespaceSchemaLocation="https://sanaregistry.org/r/ndmxml_unqualified/ndmxml-2.0.0-master-2.0.xsd">
<omm id="CCSDS_OMM_VERS" version="2.0">
<header><CREATION_DATE/><ORIGINATOR/></header><body><segment><metadata><OBJECT_NAME>ORBCOMM FM20</OBJECT_NAME><OBJECT_ID>1998-046D</OBJECT_ID><CENTER_NAME>EARTH</CENTER_NAME><REF_FRAME>TEME</REF_FRAME><TIME_SYSTEM>UTC</TIME_SYSTEM><MEAN_ELEMENT_THEORY>SGP4</MEAN_ELEMENT_THEORY></metadata><data><meanElements><EPOCH>2025-09-29T19:07:28.016256</EPOCH><MEAN_MOTION>14.37420207</MEAN_MOTION><ECCENTRICITY>.00015507</ECCENTRICITY><INCLINATION>44.9945</INCLINATION><RA_OF_ASC_NODE>45.7950</RA_OF_ASC_NODE><ARG_OF_PERICENTER>159.1271</ARG_OF_PERICENTER><MEAN_ANOMALY>200.9640</MEAN_ANOMALY></meanElements><tleParameters><EPHEMERIS_TYPE>0</EPHEMERIS_TYPE><CLASSIFICATION_TYPE>U</CLASSIFICATION_TYPE><NORAD_CAT_ID>25416</NORAD_CAT_ID><ELEMENT_SET_NO>999</ELEMENT_SET_NO><REV_AT_EPOCH>41931</REV_AT_EPOCH><BSTAR>.90941709E-3</BSTAR><MEAN_MOTION_DOT>.2603E-4</MEAN_MOTION_DOT><MEAN_MOTION_DDOT>0</MEAN_MOTION_DDOT></tleParameters></data></segment></body></omm>
<omm id="CCSDS_OMM_VERS" version="2.0">
<header><CREATION_DATE/><ORIGINATOR/></header><body><segment><metadata><OBJECT_NAME>ORBCOMM FM16</OBJECT_NAME><OBJECT_ID>1998-046E</OBJECT_ID><CENTER_NAME>EARTH</CENTER_NAME><REF_FRAME>TEME</REF_FRAME><TIME_SYSTEM>UTC</TIME_SYSTEM><MEAN_ELEMENT_THEORY>SGP4</MEAN_ELEMENT_THEORY></metadata><data><meanElements><EPOCH>2025-09-29T17:40:02.397504</EPOCH><MEAN_MOTION>14.39199448</MEAN_MOTION><ECCENTRICITY>.00046536</ECCENTRICITY><INCLINATION>44.9937</INCLINATION><RA_OF_ASC_NODE>36.2561</RA_OF_ASC_NODE><ARG_OF_PERICENTER>126.7638</ARG_OF_PERICENTER><MEAN_ANOMALY>233.3638</MEAN_ANOMALY></meanElements><tleParameters><EPHEMERIS_TYPE>0</EPHEMERIS_TYPE><CLASSIFICATION_TYPE>U</CLASSIFICATION_TYPE><NORAD_CAT_ID>25417</NORAD_CAT_ID><ELEMENT_SET_NO>999</ELEMENT_SET_NO><REV_AT_EPOCH>41931</REV_AT_EPOCH><BSTAR>.12299443E-2</BSTAR><MEAN_MOTION_DOT>.3707E-4</MEAN_MOTION_DOT><MEAN_MOTION_DDOT>0</MEAN_MOTION_DDOT></tleParameters></data></segment></body></omm>
<omm id="CCSDS_OMM_VERS" version="2.0">
<header><CREATION_DATE/><ORIGINATOR/></header><body><segment><metadata><OBJECT_NAME>ORBCOMM FM15</OBJECT_NAME><OBJECT_ID>1998-046F</OBJECT_ID><CENTER_NAME>EARTH</CENTER_NAME><REF_FRAME>TEME</REF_FRAME><TIME_SYSTEM>UTC</TIME_SYSTEM><MEAN_ELEMENT_THEORY>SGP4</MEAN_ELEMENT_THEORY></metadata><data><meanElements><EPOCH>2025-09-29T17:43:13.902240</EPOCH><MEAN_MOTION>14.38833036</MEAN_MOTION><ECCENTRICITY>.00043951</ECCENTRICITY><INCLINATION>44.9972</INCLINATION><RA_OF_ASC_NODE>41.7055</RA_OF_ASC_NODE><ARG_OF_PERICENTER>126.5963</ARG_OF_PERICENTER><MEAN_ANOMALY>233.5291</MEAN_ANOMALY></meanElements><tleParameters><EPHEMERIS_TYPE>0</EPHEMERIS_TYPE><CLASSIFICATION_TYPE>U</CLASSIFICATION_TYPE><NORAD_CAT_ID>25418</NORAD_CAT_ID><ELEMENT_SET_NO>999</ELEMENT_SET_NO><REV_AT_EPOCH>41930</REV_AT_EPOCH><BSTAR>.10635948E-2</BSTAR><MEAN_MOTION_DOT>.3161E-4</MEAN_MOTION_DOT><MEAN_MOTION_DDOT>0</MEAN_MOTION_DDOT></tleParameters></data></segment></body></omm>
<omm id="CCSDS_OMM_VERS" version="2.0">
<header><CREATION_DATE/><ORIGINATOR/></header><body><segment><metadata><OBJECT_NAME>ORBCOMM FM14</OBJECT_NAME><OBJECT_ID>1998-046G</OBJECT_ID><CENTER_NAME>EARTH</CENTER_NAME><REF_FRAME>TEME</REF_FRAME><TIME_SYSTEM>UTC</TIME_SYSTEM><MEAN_ELEMENT_THEORY>SGP4</MEAN_ELEMENT_THEORY></metadata><data><meanElements><EPOCH>2025-09-29T17:30:11.414592</EPOCH><MEAN_MOTION>14.39218189</MEAN_MOTION><ECCENTRICITY>.00031445</ECCENTRICITY><INCLINATION>44.9960</INCLINATION><RA_OF_ASC_NODE>39.6788</RA_OF_ASC_NODE><ARG_OF_PERICENTER>131.5179</ARG_OF_PERICENTER><MEAN_ANOMALY>228.5940</MEAN_ANOMALY></meanElements><tleParameters><EPHEMERIS_TYPE>0</EPHEMERIS_TYPE><CLASSIFICATION_TYPE>U</CLASSIFICATION_TYPE><NORAD_CAT_ID>25419</NORAD_CAT_ID><ELEMENT_SET_NO>999</ELEMENT_SET_NO><REV_AT_EPOCH>41927</REV_AT_EPOCH><BSTAR>.10691427E-2</BSTAR><MEAN_MOTION_DOT>.3204E-4</MEAN_MOTION_DOT><MEAN_MOTION_DDOT>0</MEAN_MOTION_DDOT></tleParameters></data></segment></body></omm>
<omm id="CCSDS_OMM_VERS" version="2.0">
<header><CREATION_DATE/><ORIGINATOR/></header><body><segment><metadata><OBJECT_NAME>ORBCOMM FM13</OBJECT_NAME><OBJECT_ID>1998-046H</OBJECT_ID><CENTER_NAME>EARTH</CENTER_NAME><REF_FRAME>TEME</REF_FRAME><TIME_SYSTEM>UTC</TIME_SYSTEM><MEAN_ELEMENT_THEORY>SGP4</MEAN_ELEMENT_THEORY></metadata><data><meanElements><EPOCH>2025-09-29T19:07:18.817248</EPOCH><MEAN_MOTION>14.37916038</MEAN_MOTION><ECCENTRICITY>.00047898</ECCENTRICITY><INCLINATION>44.9975</INCLINATION><RA_OF_ASC_NODE>48.3693</RA_OF_ASC_NODE><ARG_OF_PERICENTER>99.8702</ARG_OF_PERICENTER><MEAN_ANOMALY>260.2687</MEAN_ANOMALY></meanElements><tleParameters><EPHEMERIS_TYPE>0</EPHEMERIS_TYPE><CLASSIFICATION_TYPE>U</CLASSIFICATION_TYPE><NORAD_CAT_ID>25420</NORAD_CAT_ID><ELEMENT_SET_NO>999</ELEMENT_SET_NO><REV_AT_EPOCH>41829</REV_AT_EPOCH><BSTAR>.97460572E-3</BSTAR><MEAN_MOTION_DOT>.2829E-4</MEAN_MOTION_DOT><MEAN_MOTION_DDOT>0</MEAN_MOTION_DDOT></tleParameters></data></segment></body></omm>
<omm id="CCSDS_OMM_VERS" version="2.0">
<header><CREATION_DATE/><ORIGINATOR/></header><body><segment><metadata><OBJECT_NAME>ORBCOMM FM21</OBJECT_NAME><OBJECT_ID>1998-053A</OBJECT_ID><CENTER_NAME>EARTH</CENTER_NAME><REF_FRAME>TEME</REF_FRAME><TIME_SYSTEM>UTC</TIME_SYSTEM><MEAN_ELEMENT_THEORY>SGP4</MEAN_ELEMENT_THEORY></metadata><data><meanElements><EPOCH>2025-09-29T16:31:41.628864</EPOCH><MEAN_MOTION>14.37554083</MEAN_MOTION><ECCENTRICITY>.00021951</ECCENTRICITY><INCLINATION>45.0066</INCLINATION><RA_OF_ASC_NODE>134.5430</RA_OF_ASC_NODE><ARG_OF_PERICENTER>30.5683</ARG_OF_PERICENTER><MEAN_ANOMALY>329.5293</MEAN_ANOMALY></meanElements><tleParameters><EPHEMERIS_TYPE>0</EPHEMERIS_TYPE><CLASSIFICATION_TYPE>U</CLASSIFICATION_TYPE><NORAD_CAT_ID>25475</NORAD_CAT_ID><ELEMENT_SET_NO>999</ELEMENT_SET_NO><REV_AT_EPOCH>41228</REV_AT_EPOCH><BSTAR>.70514087E-3</BSTAR><MEAN_MOTION_DOT>.1991E-4</MEAN_MOTION_DOT><MEAN_MOTION_DDOT>0</MEAN_MOTION_DDOT></tleParameters></data></segment></body></omm>
<omm id="CCSDS_OMM_VERS" version="2.0">
<header><CREATION_DATE/><ORIGINATOR/></header><body><segment><metadata><OBJECT_NAME>ORBCOMM FM22</OBJECT_NAME><OBJECT_ID>1998-053B</OBJECT_ID><CENTER_NAME>EARTH</CENTER_NAME><REF_FRAME>TEME</REF_FRAME><TIME_SYSTEM>UTC</TIME_SYSTEM><MEAN_ELEMENT_THEORY>SGP4</MEAN_ELEMENT_THEORY></metadata><data><meanElements><EPOCH>2025-09-29T22:13:35.176512</EPOCH><MEAN_MOTION>14.38654491</MEAN_MOTION><ECCENTRICITY>.00038214</ECCENTRICITY><INCLINATION>45.0058</INCLINATION><RA_OF_ASC_NODE>127.4074</RA_OF_ASC_NODE><ARG_OF_PERICENTER>34.4879</ARG_OF_PERICENTER><MEAN_ANOMALY>325.6217</MEAN_ANOMALY></meanElements><tleParameters><EPHEMERIS_TYPE>0</EPHEMERIS_TYPE><CLASSIFICATION_TYPE>U</CLASSIFICATION_TYPE><NORAD_CAT_ID>25476</NORAD_CAT_ID><ELEMENT_SET_NO>999</ELEMENT_SET_NO><REV_AT_EPOCH>41235</REV_AT_EPOCH><BSTAR>.80857118E-3</BSTAR><MEAN_MOTION_DOT>.2359E-4</MEAN_MOTION_DOT><MEAN_MOTION_DDOT>0</MEAN_MOTION_DDOT></tleParameters></data></segment></body></omm>
<omm id="CCSDS_OMM_VERS" version="2.0">
<header><CREATION_DATE/><ORIGINATOR/></header><body><segment><metadata><OBJECT_NAME>ORBCOMM FM23</OBJECT_NAME><OBJECT_ID>1998-053C</OBJECT_ID><CENTER_NAME>EARTH</CENTER_NAME><REF_FRAME>TEME</REF_FRAME><TIME_SYSTEM>UTC</TIME_SYSTEM><MEAN_ELEMENT_THEORY>SGP4</MEAN_ELEMENT_THEORY></metadata><data><meanElements><EPOCH>2025-09-29T22:52:48.494784</EPOCH><MEAN_MOTION>14.37763167</MEAN_MOTION><ECCENTRICITY>.00031805</ECCENTRICITY><INCLINATION>45.0066</INCLINATION><RA_OF_ASC_NODE>135.2573</RA_OF_ASC_NODE><ARG_OF_PERICENTER>27.9949</ARG_OF_PERICENTER><MEAN_ANOMALY>332.1070</MEAN_ANOMALY></meanElements><tleParameters><EPHEMERIS_TYPE>0</EPHEMERIS_TYPE><CLASSIFICATION_TYPE>U</CLASSIFICATION_TYPE><NORAD_CAT_ID>25477</NORAD_CAT_ID><ELEMENT_SET_NO>999</ELEMENT_SET_NO><REV_AT_EPOCH>41247</REV_AT_EPOCH><BSTAR>.75194555E-3</BSTAR><MEAN_MOTION_DOT>.2143E-4</MEAN_MOTION_DOT><MEAN_MOTION_DDOT>0</MEAN_MOTION_DDOT></tleParameters></data></segment></body></omm>

</ndm>
