ORBCOMM FM20            
1 25416U 98046D   25272.79685204  .00002603  00000+0  90942-3 0  9991
2 25416  44.9945  45.7950 0001550 159.1271 200.9640 14.37420207419311
ORBCOMM FM16            
1 25417U 98046E   25272.73613886  .00003707  00000+0  12299-2 0  9997
2 25417  44.9937  36.2561 0004653 126.7638 233.3638 14.39199448419319
ORBCOMM FM15            
1 25418U 98046F   25272.73835535  .00003161  00000+0  10636-2 0  9992
2 25418  44.9972  41.7055 0004395 126.5963 233.5291 14.38833036419303
ORBCOMM FM14            
1 25419U 98046G   25272.72929878  .00003204  00000+0  10691-2 0  9995
2 25419  44.9960  39.6788 0003144 131.5179 228.5940 14.39218189419274
ORBCOMM FM13            
1 25420U 98046H   25272.79674557  .00002829  00000+0  97461-3 0  9998
2 25420  44.9975  48.3693 0004789  99.8702 260.2687 14.37916038418296
ORBCOMM FM21            
1 25475U 98053A   25272.68867626  .00001991  00000+0  70514-3 0  9994
2 25475  45.0066 134.5430 0002195  30.5683 329.5293 14.37554083412288
ORBCOMM FM22            
1 25476U 98053B   25272.92610158  .00002359  00000+0  80857-3 0  9998
2 25476  45.0058 127.4074 0003821  34.4879 325.6217 14.38654491412358
ORBCOMM FM23            
1 25477U 98053C   25272.95333906  .00002143  00000+0  75195-3 0  9995
2 25477  45.0066 135.2573 0003180  27.9949 332.1070 14.37763167412475
